[
    {
        "Altitude(m)": 555994.3831502408,
        "Argument of Periapsis(deg)": 0.006622991110713501,
        "Eccentricity": 0.0,
        "Inclination(deg)": 53.0,
        "Latitude(deg)": -9.625319893682686,
        "Longitude(deg)": 151.52894180217297,
        "Mean Anomaly(deg)": 191.90979286757752,
        "RAAN(deg)": 64.99014336852801,
        "Satellite Name": "Starlink Shell 1 297",
        "Satellite Number": 297,
        "Semi-Major Axis(m)": 6931778.249405717,
        "Time(s)": 190
    },
    {
        "Altitude(m)": 556111.4886392236,
        "Argument of Periapsis(deg)": 0.0069715695902247375,
        "Eccentricity": 0.0,
        "Inclination(deg)": 53.0,
        "Latitude(deg)": -10.124579823787839,
        "Longitude(deg)": 151.87546646243536,
        "Mean Anomaly(deg)": 192.53662407113433,
        "RAAN(deg)": 64.98962459845053,
        "Satellite Name": "Starlink Shell 1 297",
        "Satellite Number": 297,
        "Semi-Major Axis(m)": 6931778.249405717,
        "Time(s)": 200
    },
    {
        "Altitude(m)": 556230.9602128355,
        "Argument of Periapsis(deg)": 0.007320148069735974,
        "Eccentricity": 0.0,
        "Inclination(deg)": 53.0,
        "Latitude(deg)": -10.6233532866046,
        "Longitude(deg)": 152.22318048888744,
        "Mean Anomaly(deg)": 193.16345527469105,
        "RAAN(deg)": 64.98910582837307,
        "Satellite Name": "Starlink Shell 1 297",
        "Satellite Number": 297,
        "Semi-Major Axis(m)": 6931778.249405717,
        "Time(s)": 210
    },
    {
        "Altitude(m)": 556352.7631314481,
        "Argument of Periapsis(deg)": 0.007668726549247212,
        "Eccentricity": 0.0,
        "Inclination(deg)": 53.0,
        "Latitude(deg)": -11.121614894517856,
        "Longitude(deg)": 152.57214671452402,
        "Mean Anomaly(deg)": 193.7902864782477,
        "RAAN(deg)": 64.9885870582956,
        "Satellite Name": "Starlink Shell 1 297",
        "Satellite Number": 297,
        "Semi-Major Axis(m)": 6931778.249405717,
        "Time(s)": 220
    },
    {
        "Altitude(m)": 556476.8614743502,
        "Argument of Periapsis(deg)": 0.00801730502875845,
        "Eccentricity": 0.0,
        "Inclination(deg)": 53.0,
        "Latitude(deg)": -11.61933899927054,
        "Longitude(deg)": 152.9224285095261,
        "Mean Anomaly(deg)": 194.41711768180446,
        "RAAN(deg)": 64.98806828821812,
        "Satellite Name": "Starlink Shell 1 297",
        "Satellite Number": 297,
        "Semi-Major Axis(m)": 6931778.249405717,
        "Time(s)": 230
    },
    {
        "Altitude(m)": 556603.2181549226,
        "Argument of Periapsis(deg)": 0.008365883508269684,
        "Eccentricity": 0.0,
        "Inclination(deg)": 53.0,
        "Latitude(deg)": -12.11649967765652,
        "Longitude(deg)": 153.27409031199687,
        "Mean Anomaly(deg)": 195.04394888536112,
        "RAAN(deg)": 64.98754951814065,
        "Satellite Name": "Starlink Shell 1 297",
        "Satellite Number": 297,
        "Semi-Major Axis(m)": 6931778.249405717,
        "Time(s)": 240
    },
    {
        "Altitude(m)": 556731.7949363805,
        "Argument of Periapsis(deg)": 0.008714461987780921,
        "Eccentricity": 0.0,
        "Inclination(deg)": 53.0,
        "Latitude(deg)": -12.613070716957623,
        "Longitude(deg)": 153.62719664589434,
        "Mean Anomaly(deg)": 195.67078008891784,
        "RAAN(deg)": 64.98703074806318,
        "Satellite Name": "Starlink Shell 1 297",
        "Satellite Number": 297,
        "Semi-Major Axis(m)": 6931778.249405717,
        "Time(s)": 250
    },
    {
        "Altitude(m)": 556862.5524481,
        "Argument of Periapsis(deg)": 0.009063040467292158,
        "Eccentricity": 0.0,
        "Inclination(deg)": 53.0,
        "Latitude(deg)": -13.109025600114117,
        "Longitude(deg)": 153.9818126518964,
        "Mean Anomaly(deg)": 196.2976112924746,
        "RAAN(deg)": 64.9865119779857,
        "Satellite Name": "Starlink Shell 1 297",
        "Satellite Number": 297,
        "Semi-Major Axis(m)": 6931778.249405717,
        "Time(s)": 260
    },
    {
        "Altitude(m)": 556995.450202483,
        "Argument of Periapsis(deg)": 0.009411618946803396,
        "Eccentricity": 0.0,
        "Inclination(deg)": 53.0,
        "Latitude(deg)": -13.604337490616016,
        "Longitude(deg)": 154.3380046183177,
        "Mean Anomaly(deg)": 196.9244424960313,
        "RAAN(deg)": 64.98599320790824,
        "Satellite Name": "Starlink Shell 1 297",
        "Satellite Number": 297,
        "Semi-Major Axis(m)": 6931778.249405717,
        "Time(s)": 270
    },
    {
        "Altitude(m)": 557130.4466123997,
        "Argument of Periapsis(deg)": 0.009760197426314633,
        "Eccentricity": 0.0,
        "Inclination(deg)": 53.0,
        "Latitude(deg)": -14.098979217099611,
        "Longitude(deg)": 154.6958389991941,
        "Mean Anomaly(deg)": 197.55127369958802,
        "RAAN(deg)": 64.98547443783076,
        "Satellite Name": "Starlink Shell 1 297",
        "Satellite Number": 297,
        "Semi-Major Axis(m)": 6931778.249405717,
        "Time(s)": 280
    },
    {
        "Altitude(m)": 557267.4990091594,
        "Argument of Periapsis(deg)": 0.01010877590582587,
        "Eccentricity": 0.0,
        "Inclination(deg)": 53.0,
        "Latitude(deg)": -14.59292325764184,
        "Longitude(deg)": 155.05538294526693,
        "Mean Anomaly(deg)": 198.1781049031447,
        "RAAN(deg)": 64.98495566775328,
        "Satellite Name": "Starlink Shell 1 297",
        "Satellite Number": 297,
        "Semi-Major Axis(m)": 6931778.249405717,
        "Time(s)": 290
    },
    {
        "Altitude(m)": 557406.5636610063,
        "Argument of Periapsis(deg)": 0.010457354385337106,
        "Eccentricity": 0.0,
        "Inclination(deg)": 53.0,
        "Latitude(deg)": -15.086141723737827,
        "Longitude(deg)": 155.41670483497947,
        "Mean Anomaly(deg)": 198.80493610670143,
        "RAAN(deg)": 64.98443689767582,
        "Satellite Name": "Starlink Shell 1 297",
        "Satellite Number": 297,
        "Semi-Major Axis(m)": 6931778.249405717,
        "Time(s)": 300
    },
    {
        "Altitude(m)": 557547.5957921555,
        "Argument of Periapsis(deg)": 0.010805932864848343,
        "Eccentricity": 0.0,
        "Inclination(deg)": 53.0,
        "Latitude(deg)": -15.578606343946518,
        "Longitude(deg)": 155.77987329259503,
        "Mean Anomaly(deg)": 199.43176731025818,
        "RAAN(deg)": 64.98391812759834,
        "Satellite Name": "Starlink Shell 1 297",
        "Satellite Number": 297,
        "Semi-Major Axis(m)": 6931778.249405717,
        "Time(s)": 310
    },
    {
        "Altitude(m)": 557690.5496023115,
        "Argument of Periapsis(deg)": 0.01115451134435958,
        "Eccentricity": 0.0,
        "Inclination(deg)": 53.0,
        "Latitude(deg)": -16.070288447197086,
        "Longitude(deg)": 156.14495771916216,
        "Mean Anomaly(deg)": 200.05859851381481,
        "RAAN(deg)": 64.98339935752087,
        "Satellite Name": "Starlink Shell 1 297",
        "Satellite Number": 297,
        "Semi-Major Axis(m)": 6931778.249405717,
        "Time(s)": 320
    },
    {
        "Altitude(m)": 557835.3782867326,
        "Argument of Periapsis(deg)": 0.011503089823870818,
        "Eccentricity": 0.0,
        "Inclination(deg)": 53.0,
        "Latitude(deg)": -16.561158945741937,
        "Longitude(deg)": 156.5120288234313,
        "Mean Anomaly(deg)": 200.6854297173716,
        "RAAN(deg)": 64.9828805874434,
        "Satellite Name": "Starlink Shell 1 297",
        "Satellite Number": 297,
        "Semi-Major Axis(m)": 6931778.249405717,
        "Time(s)": 330
    },
    {
        "Altitude(m)": 557982.0340567556,
        "Argument of Periapsis(deg)": 0.011851668303382053,
        "Eccentricity": 0.0,
        "Inclination(deg)": 53.0,
        "Latitude(deg)": -17.05118831774009,
        "Longitude(deg)": 156.88115763982452,
        "Mean Anomaly(deg)": 201.31226092092828,
        "RAAN(deg)": 64.98236181736593,
        "Satellite Name": "Starlink Shell 1 297",
        "Satellite Number": 297,
        "Semi-Major Axis(m)": 6931778.249405717,
        "Time(s)": 340
    },
    {
        "Altitude(m)": 558130.4681607801,
        "Argument of Periapsis(deg)": 0.012200246782893292,
        "Eccentricity": 0.0,
        "Inclination(deg)": 53.0,
        "Latitude(deg)": -17.540346589466086,
        "Longitude(deg)": 157.2524160591748,
        "Mean Anomaly(deg)": 201.939092124485,
        "RAAN(deg)": 64.98184304728845,
        "Satellite Name": "Starlink Shell 1 297",
        "Satellite Number": 297,
        "Semi-Major Axis(m)": 6931778.249405717,
        "Time(s)": 350
    },
    {
        "Altitude(m)": 558280.6309057965,
        "Argument of Periapsis(deg)": 0.012548825262404526,
        "Eccentricity": 0.0,
        "Inclination(deg)": 53.0,
        "Latitude(deg)": -18.0286033171273,
        "Longitude(deg)": 157.62587735932988,
        "Mean Anomaly(deg)": 202.56592332804178,
        "RAAN(deg)": 64.98132427721099,
        "Satellite Name": "Starlink Shell 1 297",
        "Satellite Number": 297,
        "Semi-Major Axis(m)": 6931778.249405717,
        "Time(s)": 360
    },
    {
        "Altitude(m)": 558432.4716792726,
        "Argument of Periapsis(deg)": 0.012897403741915765,
        "Eccentricity": 0.0,
        "Inclination(deg)": 53.0,
        "Latitude(deg)": -18.515927568277863,
        "Longitude(deg)": 158.00161522271188,
        "Mean Anomaly(deg)": 203.1927545315984,
        "RAAN(deg)": 64.98080550713351,
        "Satellite Name": "Starlink Shell 1 297",
        "Satellite Number": 297,
        "Semi-Major Axis(m)": 6931778.249405717,
        "Time(s)": 370
    }
]